TDRS 3                  
1 19548U 88091B   26182.28971047 -.00000291  00000+0  00000+0 0  9991
2 19548  12.5910 340.9060 0037182 356.6904 357.1645  1.00268968125529
FLTSATCOM 8 (USA 46)    
1 20253U 89077A   26182.39553653 -.00000360  00000+0  00000+0 0  9999
2 20253  12.4174 351.0777 0003753  62.1691 134.3514  1.00270163260702
SKYNET 4C               
1 20776U 90079A   26162.20198486  .00000132  00000+0  00000+0 0  9996
2 20776  13.3424 349.8525 0002400  96.2313 279.5534  1.00274127130831
TDRS 5                  
1 21639U 91054B   26182.58535690  .00000090  00000+0  00000+0 0  9997
2 21639  14.0691 353.6694 0006482 259.2896  69.7721  1.00269239127858
TDRS 6                  
1 22314U 93003B   26182.45277727 -.00000290  00000+0  00000+0 0  9997
2 22314  14.1829 356.9522 0008729 180.1928 219.3509  1.00266144122554
UFO 2 (USA 95)          
1 22787U 93056A   26182.16243561  .00000131  00000+0  00000+0 0  9999
2 22787  11.8995   3.4772 0004286   8.7542 354.1150  1.00275328118692
USA 99 (MILSTAR-1 1)    
1 22988U 94009A   26182.49845626 -.00000092  00000+0  00000+0 0  9994
2 22988  17.6468  27.5559 0000986 181.1018 175.5085  0.98721864 33089
UFO 4 (USA 108)         
1 23467U 95003A   26182.44906032 -.00000016  00000+0  00000+0 0  9992
2 23467   9.6882  13.1367 0002933  83.7177 156.5323  1.00274323115091
TDRS 7                  
1 23613U 95035B   26182.45962727 -.00000233  00000+0  00000+0 0  9995
2 23613  13.3712 348.0913 0011707  82.8891 103.0936  1.00277522113399
USA 115 (MILSTAR-1 2)   
1 23712U 95060A   26182.49542291 -.00000197  00000+0  00000+0 0  9996
2 23712  14.0765   3.6364 0006481 115.4838 248.7486  1.00273530 33030
INMARSAT 3-F1           
1 23839U 96020A   26182.56022421 -.00000019  00000+0  00000+0 0  9992
2 23839  10.6301  46.5011 0003955  71.9926 252.4183  0.99978197110399
INMARSAT 3-F2           
1 24307U 96053A   26182.60596549 -.00000334  00000+0  00000+0 0  9991
2 24307   9.8887  53.7887 0006420  42.6275 176.6901  0.99998362109065
INMARSAT 3-F3           
1 24674U 96070A   26181.84072557  .00000117  00000+0  00000+0 0  9998
2 24674  10.3469  49.5216 0003290  54.7239 145.7482  0.99988999108043
USA 134                 
1 25019U 97065A   26182.56176580 -.00000058  00000+0  00000+0 0  9993
2 25019  12.8001  21.6115 0002667 347.8208 359.9851  1.00271177 33091
INMARSAT 3-F5           
1 25153U 98006B   26182.10378512 -.00000286  00000+0  00000+0 0  9990
2 25153   9.7224  53.1199 0004275  45.0715 164.3657  1.00271204104037
ABS-6                   
1 25924U 99053A   26182.59668957 -.00000109  00000+0  00000+0 0  9991
2 25924   0.0456 275.7670 0003048 162.3567 215.3253  1.00271954 97981
UFO 10 (USA 146)        
1 25967U 99063A   26180.37000920 -.00000185  00000+0  00000+0 0  9997
2 25967   9.8449  27.1462 0001552  73.9701 286.4977  1.00268568 97462
ASIASTAR                
1 26107U 00016A   26182.60532275 -.00000328  00000+0  00000+0 0  9994
2 26107   9.1611  57.9984 0004536  42.0027 142.5820  1.00270239 96068
USA 149 (DSP 20)        
1 26356U 00024A   26182.27395093  .00000100  00000+0  00000+0 0  9994
2 26356  13.1804  11.7487 0001357 319.1625 241.9577  1.00281769 33052
TDRS 8                  
1 26388U 00034A   26182.60133608 -.00000192  00000+0  00000+0 0  9991
2 26388  12.7059  31.1984 0004564  26.5786 163.1397  1.00274936 95323
NSS-11                  
1 26554U 00059A   26182.59050865  .00000034  00000+0  00000+0 0  9998
2 26554   2.1618  81.2298 0003140  15.5081 211.4825  1.00271560 41437
USA 153                 
1 26575U 00065A   26181.47055027 -.00000323  00000+0  00000+0 0  9991
2 26575  11.6465  35.3089 0003035  54.5579 132.3965  1.00267599 33064
AMC-6                   
1 26580U 00067A   26182.57021558  .00000098  00000+0  00000+0 0  9991
2 26580   0.1870  83.4293 0004110  27.9623 238.4829  1.00272948 94038
USA 157 (MILSTAR-2 2)   
1 26715U 01009A   26182.57680024  .00000115  00000+0  00000+0 0  9997
2 26715  11.5575  19.6711 0039887 178.1891 139.3617  1.00269385 33080
INTELSAT 902 (IS-902)   
1 26900U 01039A   26182.50330962 -.00000277  00000+0  00000+0 0  9992
2 26900   6.1523  71.6085 0004276  27.0013 312.0253  1.00272416 90834
USA 164 (MILSTAR-2 3)   
1 27168U 02001A   26180.82961494  .00000101  00000+0  00000+0 0  9997
2 27168  11.1939  21.8279 0099417   8.8560 204.7984  1.00272159 33081
INTELSAT 904 (IS-904)   
1 27380U 02007A   26182.43579384 -.00000219  00000+0  00000+0 0  9992
2 27380   6.9534  69.0143 0006343  15.1246 320.7588  1.00271894 51907
DIRECTV 5 (TEMPO 1)     
1 27426U 02023A   26182.56030187 -.00000050  00000+0  00000+0 0  9991
2 27426   4.9124  75.1357 0003552  33.1740 262.9059  1.00271763 88268
INTELSAT 905 (IS-905)   
1 27438U 02027A   26182.57128800  .00000100  00000+0  00000+0 0  9994
2 27438   6.7875  69.6281 0004043  31.6603 246.7931  1.00272223 51503
GALAXY 3C (G-3C)        
1 27445U 02030A   26182.55484317 -.00000145  00000+0  00000+0 0  9992
2 27445   3.7679  77.7949 0001945  28.1791 278.5502  1.00272276 46631
INTELSAT 906 (IS-906)   
1 27513U 02041A   26182.45690172  .00000019  00000+0  00000+0 0  9996
2 27513   5.8378  72.7457 0004119  12.0704  63.3300  1.00273103 87177
